OBJECT_NAME,OBJECT_ID,EPOCH,MEAN_MOTION,ECCENTRICITY,INCLINATION,RA_OF_ASC_NODE,ARG_OF_PERICENTER,MEAN_ANOMALY,EPHEMERIS_TYPE,CLASSIFICATION_TYPE,NORAD_CAT_ID,ELEMENT_SET_NO,REV_AT_EPOCH,BSTAR,MEAN_MOTION_DOT,MEAN_MOTION_DDOT
QIANFAN-183,2026-125A,2026-07-04T08:45:38.801088,14.10085344,.00158206,88.9946,278.5057,103.9880,256.3065,0,U,69401,999,413,-.11408367E+1,-.18796E-1,0
QIANFAN-184,2026-125B,2026-07-04T03:25:27.955488,14.16890389,.00166715,88.9955,278.5277,118.0116,242.2761,0,U,69402,999,410,.45747764E-4,.106E-5,0
QIANFAN-185,2026-125C,2026-07-04T08:43:25.512672,14.09839923,.00179215,88.9949,278.5048,101.7552,258.5644,0,U,69403,999,413,-.11277138E+1,-.1852184E-1,0
QIANFAN-186,2026-125D,2026-07-04T08:14:50.195328,14.11492785,.00186646,88.9947,278.5036,104.5011,255.8246,0,U,69404,999,413,-.11471527E+1,-.1936029E-1,0
QIANFAN-187,2026-125E,2026-07-04T09:37:45.987744,14.12709235,.0017565,88.9949,278.4920,111.6357,248.6702,0,U,69405,999,414,-.1098244E+1,-.1897655E-1,0
QIANFAN-188,2026-125F,2026-07-04T04:11:13.758720,14.19444320,.00165612,88.9955,278.5136,123.4275,236.8501,0,U,69406,999,411,.5484035E-4,.13E-5,0
QIANFAN-189,2026-125G,2026-07-03T16:29:31.380000,14.13027428,.00175397,88.9950,278.5712,134.4028,225.8598,0,U,69407,999,404,-.10288368E+1,-.1775348E-1,0
QIANFAN-190,2026-125H,2026-07-04T09:17:13.915968,14.12749815,.00200856,88.9949,278.4900,118.4366,241.8847,0,U,69408,999,414,-.10874127E+1,-.1882273E-1,0
QIANFAN-191,2026-125J,2026-07-04T02:10:48.337536,14.14461019,.00168643,88.9945,278.5198,126.5483,233.7260,0,U,69409,999,410,-.10487418E+1,-.1873053E-1,0
QIANFAN-192,2026-125K,2026-07-04T08:48:01.993536,14.15122180,.00194857,88.9947,278.4871,128.7549,231.5384,0,U,69410,999,414,-.11052312E+1,-.1990295E-1,0
QIANFAN-193,2026-125L,2026-07-04T08:35:55.645152,14.14636905,.00185107,88.9949,278.4857,126.1048,234.1856,0,U,69411,999,414,-.10238418E+1,-.1837507E-1,0
QIANFAN-194,2026-125M,2026-07-04T08:27:07.995168,14.21408413,.00160877,88.9955,278.4846,125.0057,235.2646,0,U,69412,999,413,.56233162E-4,.138E-5,0
QIANFAN-195,2026-125N,2026-07-04T08:18:32.764320,14.15971119,.0021089,88.9950,278.4841,135.6564,224.6318,0,U,69413,999,414,-.10470439E+1,-.192103E-1,0
QIANFAN-196,2026-125P,2026-07-04T18:18:03.505248,14.14976325,.0015944,88.9944,278.4347,128.0309,232.2320,0,U,69414,999,420,-.10521291E+1,-.1895221E-1,0
QIANFAN-197,2026-125Q,2026-07-04T01:14:07.609344,14.17361276,.00149107,88.9949,278.5142,145.1308,215.0861,0,U,69415,999,409,-.9864769E+0,-.1859601E-1,0
QIANFAN-198,2026-125R,2026-07-04T09:53:34.906848,14.15267243,.00169598,88.9950,278.4752,133.0385,227.2226,0,U,69416,999,415,-.10439996E+1,-.189131E-1,0
QIANFAN-199,2026-125S,2026-07-04T07:43:22.327680,14.19080547,.00192117,88.9943,278.4789,131.4897,228.7945,0,U,69417,999,414,-.99001596E+0,-.1923848E-1,0
QIANFAN-200,2026-125T,2026-07-04T07:25:06.382560,14.14151271,.00175824,88.9947,278.4966,125.2996,234.9839,0,U,69418,999,413,-.11351022E+1,-.2005905E-1,0
CZ-8 R/B,2026-125U,2026-07-04T17:06:42.425856,14.39873245,.00689607,88.9976,278.3518,24.3354,336.1077,0,U,69419,999,424,.57196658E-4,.2E-5,0
STARLINK-37537,2026-126A,2026-07-04T03:15:07.075584,15.75190685,.00045261,97.2830,45.9424,57.2434,302.9267,0,U,69420,999,541,.15239888E-2,.233597E-2,0
STARLINK-37585,2026-126B,2026-07-04T13:40:11.961696,15.75619237,.00019353,97.2831,46.4247,150.9547,209.1826,0,U,69421,999,548,.35054023E-2,.569602E-2,0
STARLINK-37573,2026-126C,2026-07-04T01:48:11.109312,15.75300896,.00011273,97.2836,45.8726,272.2469,87.8667,0,U,69422,999,540,.15677278E-2,.241599E-2,0
STARLINK-37820,2026-126D,2026-07-04T08:15:28.009152,15.75400535,.00013957,97.2836,46.2725,59.7678,300.3725,0,U,69423,999,545,.20868521E-2,.326288E-2,0
STARLINK-37822,2026-126E,2026-07-04T20:50:39.136128,15.75348968,.00009338,97.2841,46.7835,256.8678,103.2483,0,U,69424,999,553,.26347128E-2,.415456E-2,0
STARLINK-37836,2026-126F,2026-07-04T08:11:24.210816,15.75249665,.00022701,97.2847,46.2772,79.2590,280.8931,0,U,69425,999,545,.16421218E-2,.252853E-2,0
STARLINK-37850,2026-126G,2026-07-04T14:24:25.099200,15.75304899,.00008821,97.2858,46.5366,116.2702,243.8654,0,U,69426,999,554,.27661811E-2,.436458E-2,0
STARLINK-37823,2026-126H,2026-07-04T20:59:48.161472,15.75423363,.0002109,97.2824,46.7749,128.3995,231.7460,0,U,69427,999,553,.27604688E-2,.437828E-2,0
STARLINK-37834,2026-126J,2026-07-04T21:12:01.481472,15.75517426,.00025277,97.2814,46.7625,122.1214,238.0297,0,U,69428,999,553,.29334002E-2,.468881E-2,0
STARLINK-37857,2026-126K,2026-07-04T13:18:20.992896,15.75396256,.00019487,97.2829,46.4452,117.6242,242.5221,0,U,69429,999,548,.16378448E-2,.253823E-2,0
STARLINK-37866,2026-126L,2026-07-04T02:02:26.187648,15.75290516,.00012513,97.2797,46.0114,106.5397,253.6006,0,U,69430,999,546,.15775569E-2,.243047E-2,0
